BEIDOU-3 M9 (C29)       
1 43245U 18029A   26061.09381289 -.00000047  00000+0  00000+0 0  9993
2 43245  54.2902 303.6948 0000899  20.3582 339.7059  1.86228126 53900
BEIDOU-3 M10 (C30)      
1 43246U 18029B   26061.02870469 -.00000047  00000+0  00000+0 0  9990
2 43246  54.2879 303.7249 0005112  23.5882 336.4958  1.86228858 53881
IRNSS-1I                
1 43286U 18035A   26061.59912607  .00000081  00000+0  00000+0 0  9991
2 43286  28.9253  75.8423 0019149 190.1305 165.1674  1.00276830 29004
COSMOS 2527 (756)       
1 43508U 18053A   26061.09309953  .00000036  00000+0  00000+0 0  9997
2 43508  65.5168  77.4788 0009594 245.0851 114.8694  2.13101983 59999
BEIDOU-2 IGSO-7 (C16)   
1 43539U 18057A   26056.73984515 -.00000161  00000+0  00000+0 0  9993
2 43539  55.1859 164.0342 0099962 236.5988 133.5173  1.00284731 28015
GSAT0221 (GALILEO 25)   
1 43564U 18060A   26059.54670036 -.00000105  00000+0  00000+0 0  9995
2 43564  57.2051 344.7173 0005804 306.7848  53.1689  1.70475369 47315
GSAT0222 (GALILEO 26)   
1 43565U 18060B   26055.66007047 -.00000092  00000+0  00000+0 0  9996
2 43565  57.2093 344.8256 0004435 285.4820  74.4799  1.70474973 47292
GSAT0219 (GALILEO 23)   
1 43566U 18060C   26053.53475141 -.00000082  00000+0  00000+0 0  9994
2 43566  57.2094 344.8846 0005774 308.6957  51.2673  1.70475208 47235
GSAT0220 (GALILEO 24)   
1 43567U 18060D   26058.44840234 -.00000102  00000+0  00000+0 0  9992
2 43567  57.2075 344.7516 0005301 308.5821  51.3768  1.70475159 47302
BEIDOU-3 M5 (C23)       
1 43581U 18062A   26061.25281466 -.00000028  00000+0  00000+0 0  9996
2 43581  54.0881 185.9391 0002089 311.2125  48.7217  1.86228516 51643
BEIDOU-3 M12 (C26)      
1 43602U 18067A   26061.59110086 -.00000026  00000+0  00000+0 0  9999
2 43602  54.1825 184.6546 0008588  39.8197 320.1981  1.86227627 51137
BEIDOU-3 M11 (C25)      
1 43603U 18067B   26061.18888096 -.00000029  00000+0  00000+0 0  9991
2 43603  54.1803 184.6321 0005013  34.6184 325.3680  1.86227037 51154
BEIDOU-3 M13 (C32)      
1 43622U 18072A   26061.14480929 -.00000007  00000+0  00000+0 0  9993
2 43622  56.5306  66.1905 0008885 307.5967  52.3573  1.86230769 50661
BEIDOU-3 M14 (C33)      
1 43623U 18072B   26061.01026698 -.00000006  00000+0  00000+0 0  9998
2 43623  56.5324  66.1890 0006344 328.5825  31.4150  1.86230813 50657
BEIDOU-3 M16 (C35)      
1 43647U 18078A   26061.16715456 -.00000048  00000+0  00000+0 0  9999
2 43647  54.1863 303.7392 0008434  30.8134 329.2965  1.86232266 50162
BEIDOU-3 M15 (C34)      
1 43648U 18078B   26060.75950487 -.00000045  00000+0  00000+0 0  9996
2 43648  54.1830 303.7545 0005322  37.6187 322.4788  1.86232013 50172
